start=new Date('2022-11-27T00:00:00.000Z').valueOf();
sats=[{"NORAD_CAT_ID":"46747","SITE":"AFETR","CLASSIFICATION_TYPE":"U","GP_ID":"218890984","COUNTRY_CODE":"US","LAUNCH_DATE":"2020-10-24","FILE":"3671048","PERIOD":"95.591","APOAPSIS":"548.370","MEAN_ELEMENT_THEORY":"SGP4","MEAN_ANOMALY":"298.0240","OBJECT_NAME":"STARLINK-1908","REV_AT_EPOCH":"11595","MEAN_MOTION_DOT":"0.00005959","ARG_OF_PERICENTER":"62.0925","PERIAPSIS":"545.953","REF_FRAME":"TEME","MEAN_MOTION_DDOT":"0.0000000000000","TLE_LINE2":"2 46747  53.0543 304.3003 0001745  62.0925 298.0240 15.06417122115959","ECCENTRICITY":"0.00017450","ELEMENT_SET_NO":"999","EPOCH":"2022-11-26T15:42:37.819296","TLE_LINE1":"1 46747U 20074J   22330.65460439  .00005959  00000-0  41843-3 0  9999","RA_OF_ASC_NODE":"304.3003","RCS_SIZE":"LARGE","BSTAR":"0.00041843000000","EPHEMERIS_TYPE":"0","INCLINATION":"53.0543","OBJECT_ID":"2020-074J","CENTER_NAME":"EARTH","OBJECT_TYPE":"PAYLOAD","SEMIMAJOR_AXIS":"6925.296","MEAN_MOTION":"15.06417122","TIME_SYSTEM":"UTC","DECAY_DATE":null},{"LAUNCH_DATE":"2020-10-24","FILE":"3671048","CLASSIFICATION_TYPE":"U","COUNTRY_CODE":"US","GP_ID":"218889735","MEAN_ANOMALY":"296.7169","PERIOD":"95.592","APOAPSIS":"548.401","MEAN_ELEMENT_THEORY":"SGP4","NORAD_CAT_ID":"46748","SITE":"AFETR","EPOCH":"2022-11-26T15:53:14.524224","TLE_LINE1":"1 46748U 20074K   22330.66197366  .00001322  00000-0  10761-3 0  9992","MEAN_MOTION_DOT":"0.00001322","ARG_OF_PERICENTER":"63.3999","OBJECT_NAME":"STARLINK-1910","REV_AT_EPOCH":"11595","TLE_LINE2":"2 46748  53.0560 304.2627 0001750  63.3999 296.7169 15.06408064115951","ECCENTRICITY":"0.00017500","ELEMENT_SET_NO":"999","PERIAPSIS":"545.977","MEAN_MOTION_DDOT":"0.0000000000000","REF_FRAME":"TEME","INCLINATION":"53.0560","CENTER_NAME":"EARTH","OBJECT_ID":"2020-074K","RA_OF_ASC_NODE":"304.2627","RCS_SIZE":"LARGE","BSTAR":"0.00010761000000","EPHEMERIS_TYPE":"0","SEMIMAJOR_AXIS":"6925.324","OBJECT_TYPE":"PAYLOAD","DECAY_DATE":null,"MEAN_MOTION":"15.06408064","TIME_SYSTEM":"UTC"},{"INCLINATION":"53.0547","CENTER_NAME":"EARTH","OBJECT_ID":"2020-074L","RCS_SIZE":"LARGE","RA_OF_ASC_NODE":"304.2410","EPHEMERIS_TYPE":"0","BSTAR":"0.00003233800000","SEMIMAJOR_AXIS":"6925.343","OBJECT_TYPE":"PAYLOAD","DECAY_DATE":null,"TIME_SYSTEM":"UTC","MEAN_MOTION":"15.06401729","FILE":"3671048","LAUNCH_DATE":"2020-10-24","COUNTRY_CODE":"US","GP_ID":"218889486","CLASSIFICATION_TYPE":"U","MEAN_ANOMALY":"307.4341","MEAN_ELEMENT_THEORY":"SGP4","APOAPSIS":"548.410","PERIOD":"95.592","SITE":"AFETR","NORAD_CAT_ID":"46749","EPOCH":"2022-11-26T16:03:51.911712","TLE_LINE1":"1 46749U 20074L   22330.66935083  .00000200  00000-0  32338-4 0  9998","ARG_OF_PERICENTER":"52.6806","MEAN_MOTION_DOT":"0.00000200","REV_AT_EPOCH":"11595","OBJECT_NAME":"STARLINK-1911","ELEMENT_SET_NO":"999","ECCENTRICITY":"0.00017360","TLE_LINE2":"2 46749  53.0547 304.2410 0001736  52.6806 307.4341 15.06401729115952","REF_FRAME":"TEME","PERIAPSIS":"546.006","MEAN_MOTION_DDOT":"0.0000000000000"},{"DECAY_DATE":null,"TIME_SYSTEM":"UTC","MEAN_MOTION":"15.06421181","SEMIMAJOR_AXIS":"6925.284","OBJECT_TYPE":"PAYLOAD","EPHEMERIS_TYPE":"0","BSTAR":"0.00042784000000","RCS_SIZE":"LARGE","RA_OF_ASC_NODE":"304.2605","CENTER_NAME":"EARTH","OBJECT_ID":"2020-074N","INCLINATION":"53.0538","ECCENTRICITY":"0.00017700","ELEMENT_SET_NO":"999","TLE_LINE2":"2 46751  53.0538 304.2605 0001770  68.7524 291.3654 15.06421181115956","REF_FRAME":"TEME","PERIAPSIS":"545.923","MEAN_MOTION_DDOT":"0.0000000000000","ARG_OF_PERICENTER":"68.7524","MEAN_MOTION_DOT":"0.00006100","REV_AT_EPOCH":"11595","OBJECT_NAME":"STARLINK-1920","TLE_LINE1":"1 46751U 20074N   22330.66566033  .00006100  00000-0  42784-3 0  9996","EPOCH":"2022-11-26T15:58:33.052512","SITE":"AFETR","NORAD_CAT_ID":"46751","MEAN_ANOMALY":"291.3654","APOAPSIS":"548.374","PERIOD":"95.591","MEAN_ELEMENT_THEORY":"SGP4","LAUNCH_DATE":"2020-10-24","FILE":"3671048","GP_ID":"218890736","COUNTRY_CODE":"US","CLASSIFICATION_TYPE":"U"},{"TLE_LINE1":"1 46752U 20074P   22330.34500446  .00013846  00000-0  94644-3 0  9995","EPOCH":"2022-11-26T08:16:48.385344","PERIAPSIS":"545.750","MEAN_MOTION_DDOT":"0.0000000000000","REF_FRAME":"TEME","TLE_LINE2":"2 46752  53.0545 305.6936 0002085  63.3649 296.7553 15.06406314115909","ELEMENT_SET_NO":"999","ECCENTRICITY":"0.00020850","OBJECT_NAME":"STARLINK-1921","REV_AT_EPOCH":"11590","MEAN_MOTION_DOT":"0.00013846","ARG_OF_PERICENTER":"63.3649","APOAPSIS":"548.638","PERIOD":"95.592","MEAN_ELEMENT_THEORY":"SGP4","MEAN_ANOMALY":"296.7553","CLASSIFICATION_TYPE":"U","COUNTRY_CODE":"US","GP_ID":"218858471","FILE":"3670770","LAUNCH_DATE":"2020-10-24","NORAD_CAT_ID":"46752","SITE":"AFETR","MEAN_MOTION":"15.06406314","TIME_SYSTEM":"UTC","DECAY_DATE":null,"OBJECT_TYPE":"PAYLOAD","SEMIMAJOR_AXIS":"6925.329","OBJECT_ID":"2020-074P","CENTER_NAME":"EARTH","INCLINATION":"53.0545","BSTAR":"0.00094644000000","EPHEMERIS_TYPE":"0","RA_OF_ASC_NODE":"305.6936","RCS_SIZE":"LARGE"},{"BSTAR":"0.00017522000000","EPHEMERIS_TYPE":"0","RA_OF_ASC_NODE":"305.5467","RCS_SIZE":"LARGE","CENTER_NAME":"EARTH","OBJECT_ID":"2020-074Q","INCLINATION":"53.0547","DECAY_DATE":null,"MEAN_MOTION":"15.06400276","TIME_SYSTEM":"UTC","SEMIMAJOR_AXIS":"6925.348","OBJECT_TYPE":"PAYLOAD","NORAD_CAT_ID":"46753","SITE":"AFETR","MEAN_ANOMALY":"313.9733","APOAPSIS":"548.699","MEAN_ELEMENT_THEORY":"SGP4","PERIOD":"95.592","FILE":"3670928","LAUNCH_DATE":"2020-10-24","CLASSIFICATION_TYPE":"U","GP_ID":"218867681","COUNTRY_CODE":"US","TLE_LINE2":"2 46753  53.0547 305.5467 0002146  46.1433 313.9733 15.06400276115934","ELEMENT_SET_NO":"999","ECCENTRICITY":"0.00021460","REF_FRAME":"TEME","PERIAPSIS":"545.727","MEAN_MOTION_DDOT":"0.0000000000000","MEAN_MOTION_DOT":"0.00002329","ARG_OF_PERICENTER":"46.1433","OBJECT_NAME":"STARLINK-1922","REV_AT_EPOCH":"11593","TLE_LINE1":"1 46753U 20074Q   22330.37816192  .00002329  00000-0  17522-3 0  9991","EPOCH":"2022-11-26T09:04:33.189888"},{"LAUNCH_DATE":"2020-10-24","FILE":"3671048","CLASSIFICATION_TYPE":"U","COUNTRY_CODE":"US","GP_ID":"218889986","MEAN_ANOMALY":"291.7655","APOAPSIS":"548.350","MEAN_ELEMENT_THEORY":"SGP4","PERIOD":"95.591","NORAD_CAT_ID":"46754","SITE":"AFETR","EPOCH":"2022-11-26T15:37:19.076736","TLE_LINE1":"1 46754U 20074R   22330.65091524  .00004403  00000-0  31416-3 0  9990","MEAN_MOTION_DOT":"0.00004403","ARG_OF_PERICENTER":"68.3516","OBJECT_NAME":"STARLINK-1923","REV_AT_EPOCH":"11595","TLE_LINE2":"2 46754  53.0555 304.3110 0001716  68.3516 291.7655 15.06416816115951","ECCENTRICITY":"0.00017160","ELEMENT_SET_NO":"999","REF_FRAME":"TEME","PERIAPSIS":"545.974","MEAN_MOTION_DDOT":"0.0000000000000","INCLINATION":"53.0555","CENTER_NAME":"EARTH","OBJECT_ID":"2020-074R","RA_OF_ASC_NODE":"304.3110","RCS_SIZE":"LARGE","BSTAR":"0.00031416000000","EPHEMERIS_TYPE":"0","SEMIMAJOR_AXIS":"6925.297","OBJECT_TYPE":"PAYLOAD","DECAY_DATE":null,"MEAN_MOTION":"15.06416816","TIME_SYSTEM":"UTC"},{"INCLINATION":"53.0558","CENTER_NAME":"EARTH","OBJECT_ID":"2020-074S","RA_OF_ASC_NODE":"309.2870","RCS_SIZE":"LARGE","BSTAR":"0.00021765000000","EPHEMERIS_TYPE":"0","SEMIMAJOR_AXIS":"6925.309","OBJECT_TYPE":"PAYLOAD","DECAY_DATE":null,"MEAN_MOTION":"15.06412970","TIME_SYSTEM":"UTC","LAUNCH_DATE":"2020-10-24","FILE":"3671048","CLASSIFICATION_TYPE":"U","COUNTRY_CODE":"US","GP_ID":"218890238","MEAN_ANOMALY":"317.2177","APOAPSIS":"548.755","PERIOD":"95.591","MEAN_ELEMENT_THEORY":"SGP4","NORAD_CAT_ID":"46755","SITE":"AFETR","EPOCH":"2022-11-26T15:44:36.791232","TLE_LINE1":"1 46755U 20074S   22330.65598138  .00002963  00000-0  21765-3 0  9999","MEAN_MOTION_DOT":"0.00002963","ARG_OF_PERICENTER":"42.8990","OBJECT_NAME":"STARLINK-1924","REV_AT_EPOCH":"11588","TLE_LINE2":"2 46755  53.0558 309.2870 0002283  42.8990 317.2177 15.06412970115887","ECCENTRICITY":"0.00022830","ELEMENT_SET_NO":"999","PERIAPSIS":"545.593","MEAN_MOTION_DDOT":"0.0000000000000","REF_FRAME":"TEME"},{"SEMIMAJOR_AXIS":"6925.333","OBJECT_TYPE":"PAYLOAD","DECAY_DATE":null,"MEAN_MOTION":"15.06404999","TIME_SYSTEM":"UTC","RA_OF_ASC_NODE":"311.0391","RCS_SIZE":"LARGE","BSTAR":"0.00018972000000","EPHEMERIS_TYPE":"0","INCLINATION":"53.0553","CENTER_NAME":"EARTH","OBJECT_ID":"2020-074T","MEAN_MOTION_DOT":"0.00002546","ARG_OF_PERICENTER":"51.5161","OBJECT_NAME":"STARLINK-1925","REV_AT_EPOCH":"11583","TLE_LINE2":"2 46756  53.0553 311.0391 0002051  51.5161 308.6011 15.06404999115830","ECCENTRICITY":"0.00020510","ELEMENT_SET_NO":"999","PERIAPSIS":"545.778","MEAN_MOTION_DDOT":"0.0000000000000","REF_FRAME":"TEME","EPOCH":"2022-11-26T08:29:27.000672","TLE_LINE1":"1 46756U 20074T   22330.35378473  .00002546  00000-0  18972-3 0  9998","NORAD_CAT_ID":"46756","SITE":"AFETR","FILE":"3670770","LAUNCH_DATE":"2020-10-24","CLASSIFICATION_TYPE":"U","GP_ID":"218858969","COUNTRY_CODE":"US","MEAN_ANOMALY":"308.6011","APOAPSIS":"548.619","MEAN_ELEMENT_THEORY":"SGP4","PERIOD":"95.592"},{"NORAD_CAT_ID":"46757","SITE":"AFETR","PERIOD":"95.592","APOAPSIS":"548.335","MEAN_ELEMENT_THEORY":"SGP4","MEAN_ANOMALY":"300.4393","CLASSIFICATION_TYPE":"U","COUNTRY_CODE":"US","GP_ID":"218857719","LAUNCH_DATE":"2020-10-24","FILE":"3670770","MEAN_MOTION_DDOT":"0.0000000000000","PERIAPSIS":"546.040","REF_FRAME":"TEME","TLE_LINE2":"2 46757  53.0539 311.4066 0001657  59.6760 300.4393 15.06408606115813","ELEMENT_SET_NO":"999","ECCENTRICITY":"0.00016570","OBJECT_NAME":"STARLINK-1926","REV_AT_EPOCH":"11581","MEAN_MOTION_DOT":"0.00003351","ARG_OF_PERICENTER":"59.6760","TLE_LINE1":"1 46757U 20074U   22330.23581956  .00003351  00000-0  24368-3 0  9999","EPOCH":"2022-11-26T05:39:34.809984","BSTAR":"0.00024368000000","EPHEMERIS_TYPE":"0","RA_OF_ASC_NODE":"311.4066","RCS_SIZE":"LARGE","OBJECT_ID":"2020-074U","CENTER_NAME":"EARTH","INCLINATION":"53.0539","MEAN_MOTION":"15.06408606","TIME_SYSTEM":"UTC","DECAY_DATE":null,"OBJECT_TYPE":"PAYLOAD","SEMIMAJOR_AXIS":"6925.322"}];
